[{"OBJECT_NAME":"UWE-3","OBJECT_ID":"2013-066AG","EPOCH":"2026-03-09T20:43:24.491424","MEAN_MOTION":14.96183146,"ECCENTRICITY":0.00484622,"INCLINATION":97.8589,"RA_OF_ASC_NODE":24.3957,"ARG_OF_PERICENTER":291.5404,"MEAN_ANOMALY":68.0655,"EPHEMERIS_TYPE":0,"CLASSIFICATION_TYPE":"U","NORAD_CAT_ID":39446,"ELEMENT_SET_NO":999,"REV_AT_EPOCH":66272,"BSTAR":0.00057141515,"MEAN_MOTION_DOT":6.533e-5,"MEAN_MOTION_DDOT":0},{"OBJECT_NAME":"SL-8 DEB","OBJECT_ID":"2002-054E","EPOCH":"2026-03-09T02:36:59.276160","MEAN_MOTION":14.81701643,"ECCENTRICITY":0.0028156,"INCLINATION":98.241,"RA_OF_ASC_NODE":298.4882,"ARG_OF_PERICENTER":30.5083,"MEAN_ANOMALY":329.7759,"EPHEMERIS_TYPE":0,"CLASSIFICATION_TYPE":"U","NORAD_CAT_ID":27769,"ELEMENT_SET_NO":999,"REV_AT_EPOCH":24282,"BSTAR":0.00071249751,"MEAN_MOTION_DOT":5.596e-5,"MEAN_MOTION_DDOT":0}]
